[{"OBJECT_NAME":"AMC-3","OBJECT_ID":"1997-050A","EPOCH":"2026-03-03T23:54:38.515968","MEAN_MOTION":1.00271818,"ECCENTRICITY":0.00034833,"INCLINATION":7.8887,"RA_OF_ASC_NODE":65.2783,"ARG_OF_PERICENTER":287.8217,"MEAN_ANOMALY":95.3034,"EPHEMERIS_TYPE":0,"CLASSIFICATION_TYPE":"U","NORAD_CAT_ID":24936,"ELEMENT_SET_NO":999,"REV_AT_EPOCH":5138,"BSTAR":0,"MEAN_MOTION_DOT":-2.71e-6,"MEAN_MOTION_DDOT":0},{"OBJECT_NAME":"NSS-11","OBJECT_ID":"2000-059A","EPOCH":"2026-03-05T06:16:39.699840","MEAN_MOTION":1.00272352,"ECCENTRICITY":0.00031696,"INCLINATION":1.8582,"RA_OF_ASC_NODE":82.6615,"ARG_OF_PERICENTER":268.1424,"MEAN_ANOMALY":82.3499,"EPHEMERIS_TYPE":0,"CLASSIFICATION_TYPE":"U","NORAD_CAT_ID":26554,"ELEMENT_SET_NO":999,"REV_AT_EPOCH":4024,"BSTAR":0,"MEAN_MOTION_DOT":1.7e-7,"MEAN_MOTION_DDOT":0},{"OBJECT_NAME":"AMC-6","OBJECT_ID":"2000-067A","EPOCH":"2026-03-05T06:30:30.872160","MEAN_MOTION":1.00272434,"ECCENTRICITY":0.00031011,"INCLINATION":0.0324,"RA_OF_ASC_NODE":321.4405,"ARG_OF_PERICENTER":27.1284,"MEAN_ANOMALY":136.9944,"EPHEMERIS_TYPE":0,"CLASSIFICATION_TYPE":"U","NORAD_CAT_ID":26580,"ELEMENT_SET_NO":999,"REV_AT_EPOCH":9285,"BSTAR":0,"MEAN_MOTION_DOT":8.0e-7,"MEAN_MOTION_DDOT":0},{"OBJECT_NAME":"AMC-11","OBJECT_ID":"2004-017A","EPOCH":"2026-03-05T06:37:22.713312","MEAN_MOTION":1.00272576,"ECCENTRICITY":0.00032302,"INCLINATION":0.0436,"RA_OF_ASC_NODE":79.3083,"ARG_OF_PERICENTER":271.7045,"MEAN_ANOMALY":160.2348,"EPHEMERIS_TYPE":0,"CLASSIFICATION_TYPE":"U","NORAD_CAT_ID":28252,"ELEMENT_SET_NO":999,"REV_AT_EPOCH":7982,"BSTAR":0,"MEAN_MOTION_DOT":-5.8e-7,"MEAN_MOTION_DDOT":0},{"OBJECT_NAME":"AMC-15","OBJECT_ID":"2004-041A","EPOCH":"2026-03-05T06:39:07.545888","MEAN_MOTION":1.00272168,"ECCENTRICITY":0.00026105,"INCLINATION":0.0531,"RA_OF_ASC_NODE":298.8874,"ARG_OF_PERICENTER":29.2669,"MEAN_ANOMALY":189.5735,"EPHEMERIS_TYPE":0,"CLASSIFICATION_TYPE":"U","NORAD_CAT_ID":28446,"ELEMENT_SET_NO":999,"REV_AT_EPOCH":7826,"BSTAR":0,"MEAN_MOTION_DOT":-9.7e-7,"MEAN_MOTION_DDOT":0},{"OBJECT_NAME":"NSS-10","OBJECT_ID":"2005-003A","EPOCH":"2026-03-04T10:52:38.525952","MEAN_MOTION":1.00271252,"ECCENTRICITY":0.0003261,"INCLINATION":6.1878,"RA_OF_ASC_NODE":71.7201,"ARG_OF_PERICENTER":277.1631,"MEAN_ANOMALY":299.0193,"EPHEMERIS_TYPE":0,"CLASSIFICATION_TYPE":"U","NORAD_CAT_ID":28526,"ELEMENT_SET_NO":999,"REV_AT_EPOCH":5210,"BSTAR":0,"MEAN_MOTION_DOT":-2.6e-6,"MEAN_MOTION_DDOT":0},{"OBJECT_NAME":"ASTRA 1KR","OBJECT_ID":"2006-012A","EPOCH":"2026-03-05T05:31:44.009472","MEAN_MOTION":1.00272696,"ECCENTRICITY":0.00033428,"INCLINATION":0.2059,"RA_OF_ASC_NODE":81.8591,"ARG_OF_PERICENTER":247.3587,"MEAN_ANOMALY":295.6752,"EPHEMERIS_TYPE":0,"CLASSIFICATION_TYPE":"U","NORAD_CAT_ID":29055,"ELEMENT_SET_NO":999,"REV_AT_EPOCH":4465,"BSTAR":0,"MEAN_MOTION_DOT":1.1e-6,"MEAN_MOTION_DDOT":0},{"OBJECT_NAME":"ASTRA 1L","OBJECT_ID":"2007-016A","EPOCH":"2026-03-05T05:19:22.693152","MEAN_MOTION":1.00271216,"ECCENTRICITY":0.00033578,"INCLINATION":1.0529,"RA_OF_ASC_NODE":82.416,"ARG_OF_PERICENTER":277.5193,"MEAN_ANOMALY":218.408,"EPHEMERIS_TYPE":0,"CLASSIFICATION_TYPE":"U","NORAD_CAT_ID":31306,"ELEMENT_SET_NO":999,"REV_AT_EPOCH":4394,"BSTAR":0,"MEAN_MOTION_DOT":-1.92e-6,"MEAN_MOTION_DDOT":0},{"OBJECT_NAME":"ASTRA 4A","OBJECT_ID":"2007-057A","EPOCH":"2026-03-05T05:27:44.391168","MEAN_MOTION":1.00274019,"ECCENTRICITY":0.00024632,"INCLINATION":0.0515,"RA_OF_ASC_NODE":295.1695,"ARG_OF_PERICENTER":55.1392,"MEAN_ANOMALY":259.4054,"EPHEMERIS_TYPE":0,"CLASSIFICATION_TYPE":"U","NORAD_CAT_ID":32299,"ELEMENT_SET_NO":999,"REV_AT_EPOCH":5060,"BSTAR":0,"MEAN_MOTION_DOT":2.4e-7,"MEAN_MOTION_DDOT":0},{"OBJECT_NAME":"ASTRA 1M","OBJECT_ID":"2008-057A","EPOCH":"2026-03-05T05:31:51.496896","MEAN_MOTION":1.002744,"ECCENTRICITY":9.342e-5,"INCLINATION":0.0366,"RA_OF_ASC_NODE":61.9971,"ARG_OF_PERICENTER":11.8413,"MEAN_ANOMALY":191.2889,"EPHEMERIS_TYPE":0,"CLASSIFICATION_TYPE":"U","NORAD_CAT_ID":33436,"ELEMENT_SET_NO":999,"REV_AT_EPOCH":4469,"BSTAR":0,"MEAN_MOTION_DOT":1.11e-6,"MEAN_MOTION_DDOT":0},{"OBJECT_NAME":"NSS-9","OBJECT_ID":"2009-008A","EPOCH":"2026-03-05T06:18:39.508992","MEAN_MOTION":1.00273439,"ECCENTRICITY":0.0002147,"INCLINATION":0.993,"RA_OF_ASC_NODE":83.6954,"ARG_OF_PERICENTER":256.7231,"MEAN_ANOMALY":100.3069,"EPHEMERIS_TYPE":0,"CLASSIFICATION_TYPE":"U","NORAD_CAT_ID":33749,"ELEMENT_SET_NO":999,"REV_AT_EPOCH":6247,"BSTAR":0,"MEAN_MOTION_DOT":6.4e-7,"MEAN_MOTION_DDOT":0},{"OBJECT_NAME":"SES-7 (PROTOSTAR 2)","OBJECT_ID":"2009-027A","EPOCH":"2026-03-05T03:57:38.733696","MEAN_MOTION":1.00271291,"ECCENTRICITY":0.00014983,"INCLINATION":0.0192,"RA_OF_ASC_NODE":100.2216,"ARG_OF_PERICENTER":205.7594,"MEAN_ANOMALY":24.5823,"EPHEMERIS_TYPE":0,"CLASSIFICATION_TYPE":"U","NORAD_CAT_ID":34941,"ELEMENT_SET_NO":999,"REV_AT_EPOCH":6158,"BSTAR":0,"MEAN_MOTION_DOT":-3.54e-6,"MEAN_MOTION_DDOT":0},{"OBJECT_NAME":"NSS-12","OBJECT_ID":"2009-058A","EPOCH":"2026-03-05T04:57:38.614752","MEAN_MOTION":1.00272946,"ECCENTRICITY":0.00049391,"INCLINATION":0.0178,"RA_OF_ASC_NODE":280.2695,"ARG_OF_PERICENTER":49.987,"MEAN_ANOMALY":324.084,"EPHEMERIS_TYPE":0,"CLASSIFICATION_TYPE":"U","NORAD_CAT_ID":36032,"ELEMENT_SET_NO":999,"REV_AT_EPOCH":5987,"BSTAR":0,"MEAN_MOTION_DOT":6.3e-7,"MEAN_MOTION_DDOT":0},{"OBJECT_NAME":"SES-1","OBJECT_ID":"2010-016A","EPOCH":"2026-03-05T04:57:32.285952","MEAN_MOTION":1.00272523,"ECCENTRICITY":0.0002517,"INCLINATION":0.0511,"RA_OF_ASC_NODE":295.1904,"ARG_OF_PERICENTER":41.6396,"MEAN_ANOMALY":159.4918,"EPHEMERIS_TYPE":0,"CLASSIFICATION_TYPE":"U","NORAD_CAT_ID":36516,"ELEMENT_SET_NO":999,"REV_AT_EPOCH":5799,"BSTAR":0,"MEAN_MOTION_DOT":-1.23e-6,"MEAN_MOTION_DDOT":0},{"OBJECT_NAME":"ASTRA 3B","OBJECT_ID":"2010-021A","EPOCH":"2026-03-05T05:33:06.377184","MEAN_MOTION":1.00272087,"ECCENTRICITY":0.00030925,"INCLINATION":1.1995,"RA_OF_ASC_NODE":84.9161,"ARG_OF_PERICENTER":280.6133,"MEAN_ANOMALY":264.2035,"EPHEMERIS_TYPE":0,"CLASSIFICATION_TYPE":"U","NORAD_CAT_ID":36581,"ELEMENT_SET_NO":999,"REV_AT_EPOCH":5782,"BSTAR":0,"MEAN_MOTION_DOT":1.29e-6,"MEAN_MOTION_DDOT":0},{"OBJECT_NAME":"SES-3","OBJECT_ID":"2011-035A","EPOCH":"2026-03-05T04:57:02.333664","MEAN_MOTION":1.00272262,"ECCENTRICITY":0.00035791,"INCLINATION":1.0579,"RA_OF_ASC_NODE":84.2971,"ARG_OF_PERICENTER":267.1143,"MEAN_ANOMALY":142.7791,"EPHEMERIS_TYPE":0,"CLASSIFICATION_TYPE":"U","NORAD_CAT_ID":37748,"ELEMENT_SET_NO":999,"REV_AT_EPOCH":5355,"BSTAR":0,"MEAN_MOTION_DOT":-1.1e-6,"MEAN_MOTION_DDOT":0},{"OBJECT_NAME":"ASTRA 1N","OBJECT_ID":"2011-041A","EPOCH":"2026-03-05T05:31:51.496896","MEAN_MOTION":1.0027439,"ECCENTRICITY":0.00041388,"INCLINATION":0.0697,"RA_OF_ASC_NODE":22.222,"ARG_OF_PERICENTER":357.1581,"MEAN_ANOMALY":245.7504,"EPHEMERIS_TYPE":0,"CLASSIFICATION_TYPE":"U","NORAD_CAT_ID":37775,"ELEMENT_SET_NO":999,"REV_AT_EPOCH":4348,"BSTAR":0,"MEAN_MOTION_DOT":1.11e-6,"MEAN_MOTION_DDOT":0}]
