AMC-3                   
1 24936U 97050A   26062.99627912 -.00000271  00000+0  00000+0 0  9995
2 24936   7.8887  65.2783 0003483 287.8217  95.3034  1.00271818 51387
NSS-11                  
1 26554U 00059A   26064.26157060  .00000017  00000+0  00000+0 0  9997
2 26554   1.8582  82.6615 0003169 268.1424  82.3499  1.00272352 40249
AMC-6                   
1 26580U 00067A   26064.27119065  .00000080  00000+0  00000+0 0  9999
2 26580   0.0324 321.4405 0003101  27.1284 136.9944  1.00272434 92853
AMC-11                  
1 28252U 04017A   26064.27595733 -.00000058  00000+0  00000+0 0  9992
2 28252   0.0436  79.3083 0003230 271.7045 160.2348  1.00272576 79828
AMC-15                  
1 28446U 04041A   26064.27717067 -.00000097  00000+0  00000+0 0  9993
2 28446   0.0531 298.8874 0002610  29.2669 189.5735  1.00272168 78262
NSS-10                  
1 28526U 05003A   26063.45322368 -.00000260  00000+0  00000+0 0  9998
2 28526   6.1878  71.7201 0003261 277.1631 299.0193  1.00271252 52103
ASTRA 1KR               
1 29055U 06012A   26064.23037048  .00000110  00000+0  00000+0 0  9995
2 29055   0.2059  81.8591 0003342 247.3587 295.6752  1.00272696 44657
ASTRA 1L                
1 31306U 07016A   26064.22179043 -.00000192  00000+0  00000+0 0  9994
2 31306   1.0529  82.4160 0003357 277.5193 218.4080  1.00271216 43948
ASTRA 4A                
1 32299U 07057A   26064.22759712  .00000024  00000+0  00000+0 0  9991
2 32299   0.0515 295.1695 0002463  55.1392 259.4054  1.00274019 50609
ASTRA 1M                
1 33436U 08057A   26064.23045714  .00000111  00000+0  00000+0 0  9994
2 33436   0.0366  61.9971 0000934  11.8413 191.2889  1.00274400 44692
NSS-9                   
1 33749U 09008A   26064.26295728  .00000064  00000+0  00000+0 0  9990
2 33749   0.9930  83.6954 0002147 256.7231 100.3069  1.00273439 62471
SES-7 (PROTOSTAR 2)     
1 34941U 09027A   26064.16503164 -.00000354  00000+0  00000+0 0  9994
2 34941   0.0192 100.2216 0001498 205.7594  24.5823  1.00271291 61588
NSS-12                  
1 36032U 09058A   26064.20669693  .00000063  00000+0  00000+0 0  9992
2 36032   0.0178 280.2695 0004939  49.9870 324.0840  1.00272946 59877
SES-1                   
1 36516U 10016A   26064.20662368 -.00000123  00000+0  00000+0 0  9995
2 36516   0.0511 295.1904 0002517  41.6396 159.4918  1.00272523 57993
ASTRA 3B                
1 36581U 10021A   26064.23132381  .00000129  00000+0  00000+0 0  9998
2 36581   1.1995  84.9161 0003092 280.6133 264.2035  1.00272087 57827
SES-3                   
1 37748U 11035A   26064.20627701 -.00000110  00000+0  00000+0 0  9993
2 37748   1.0579  84.2971 0003579 267.1143 142.7791  1.00272262 53553
ASTRA 1N                
1 37775U 11041A   26064.23045714  .00000111  00000+0  00000+0 0  9991
2 37775   0.0697  22.2220 0004138 357.1581 245.7504  1.00274390 43481
